RADUGA 1                
1 08513U 75123A   24154.85657063 -.00000028  00000+0  00000+0 0  9990
2 08513   4.7270 278.4071 0006036 241.8563 109.7009  1.00249713187348
RADUGA 2                
1 09416U 76092A   24154.85514781 -.00000005  00000+0  00000+0 0  9993
2 09416   5.3979 280.6608 0026799  18.9063 326.3704  1.00289387121877
RADUGA 3                
1 10159U 77071A   24154.84385772 -.00000305  00000+0  00000+0 0  9995
2 10159   6.0278 283.6317 0008526 258.5659 112.5772  1.00336070169586
RADUGA 4                
1 10987U 78073A   24154.91438288  .00000033  00000+0  00000+0 0  9993
2 10987   6.6731 287.6511 0008706  21.8503 335.1618  1.00197196112139
RADUGA 5                
1 11343U 79035A   24154.91398916 -.00000173  00000+0  00000+0 0  9998
2 11343   7.1552 290.7756 0006147 189.4998 184.1022  1.00286800121890
RADUGA 6                
1 11708U 80016A   24154.56432656  .00000140  00000+0  00000+0 0  9998
2 11708   7.5437 294.2564 0001953 217.1938 345.3573  1.00258771114698
RADUGA 7                
1 12003U 80081A   24154.59693721  .00000128  00000+0  00000+0 0  9990
2 12003   7.7481 296.4506 0008793 281.3873  94.4908  1.00202463115847
RADUGA 8                
1 12351U 81027A   24154.69527767 -.00000137  00000+0  00000+0 0  9995
2 12351   8.0871 296.8991 0080317 249.3497 296.9917  1.00355635115074
RADUGA 9                
1 12618U 81069A   24154.56397847  .00000140  00000+0  00000+0 0  9990
2 12618   8.3417 300.3123 0004130 163.1291  31.3843  1.00232051 39879
RADUGA 10               
1 12897U 81102A   24154.49927576 -.00000099  00000+0  00000+0 0  9991
2 12897   8.4424 301.4181 0005175 199.3339   5.1848  1.00296474109878
RADUGA 11               
1 13669U 82113A   24154.46577205 -.00000056  00000+0  00000+0 0  9992
2 13669  10.6849 316.3740 0039140 272.5054  96.1348  0.97708183114269
RADUGA 12               
1 13974U 83028A   24154.49753531 -.00000017  00000+0  00000+0 0  9995
2 13974   9.7394 311.9124 0002083 120.5792  63.9674  1.00262823161915
RADUGA 13               
1 14307U 83088A   24154.76993778 -.00000184  00000+0  00000+0 0  9996
2 14307  10.9692 317.8412 0016488  58.4947 155.0851  0.98175782111638
RADUGA 14               
1 14725U 84016A   24154.91121975 -.00000173  00000+0  00000+0 0  9999
2 14725  10.0193 316.0040 0005108 151.7582 193.6245  1.00294811110639
RADUGA 15               
1 15057U 84063A   24154.08035618  .00000093  00000+0  00000+0 0  9996
2 15057  10.1612 317.0168 0005503 179.3471 161.8391  1.00290069133623
RADUGA 16               
1 15946U 85070A   24154.76480876 -.00000236  00000+0  00000+0 0  9997
2 15946  10.7226 321.8523 0002099 185.4561 349.9233  1.00272503114761
RADUGA 17               
1 16250U 85107A   24154.70197841  .00000053  00000+0  00000+0 0  9994
2 16250  10.8764 323.3384 0014439 201.6233 353.7944  1.00169359144217
RADUGA 18               
1 16497U 86007A   24154.56789448  .00000038  00000+0  00000+0 0  9994
2 16497  11.7313 326.1509 0074331 181.7928   7.9114  0.98810891138508
RADUGA 19               
1 17046U 86082A   24154.44520149 -.00000052  00000+0  00000+0 0  9993
2 17046  12.2559 330.2358 0013706 166.5834 190.8098  0.98459405135578
RADUGA 20               
1 17611U 87028A   24154.60189751 -.00000097  00000+0  00000+0 0  9999
2 17611  14.3332 333.6001 0030754 153.8702 211.9402  0.95960991131175
RADUGA 21               
1 18631U 87100A   24154.37944222 -.00000302  00000+0  00000+0 0  9998
2 18631  12.3763 330.6760 0003073 154.8823 201.4443  1.00224473133617
RADUGA 22               
1 19596U 88095A   24154.70380589  .00000110  00000+0  00000+0 0  9996
2 19596  12.4795 335.2598 0008146 164.1344  29.1036  1.00328617114181
RADUGA 23               
1 19928U 89030A   24154.63766382  .00000087  00000+0  00000+0 0  9999
2 19928  12.6719 337.1014 0021840 180.4566  14.5097  1.00196499127387
RADUGA-1 1              
1 20083U 89048A   24154.70389292 -.00000102  00000+0  00000+0 0  9990
2 20083  13.5034 340.2761 0022189 133.2956  55.5793  0.98709716123923
RADUGA 24               
1 20367U 89098A   24154.84122846 -.00000325  00000+0  00000+0 0  9992
2 20367  13.3093 339.1874 0002127 189.3629 126.7914  1.00238772125507
RADUGA 25               
1 20499U 90016A   24154.60041812  .00000055  00000+0  00000+0 0  9996
2 20499  13.1032 339.9594 0005953 166.4914 184.2216  1.00363026125431
RADUGA 26               
1 21016U 90112A   24154.63801191  .00000065  00000+0  00000+0 0  9997
2 21016  13.5056 343.2256 0006690 115.4015  75.4891  1.00271020122793
RADUGA-1 2              
1 21038U 90116A   24154.56954792 -.00000038  00000+0  00000+0 0  9994
2 21038  13.5451 343.2771 0007940 125.4315  55.6963  1.00217085 39878
RADUGA 27               
1 21132U 91014A   24154.90396628 -.00000369  00000+0  00000+0 0  9990
2 21132  14.0359 342.5377 0003304 125.4076 220.3150  1.00200245121842
RADUGA 28               
1 21821U 91087A   24154.84133610 -.00000347  00000+0  00000+0 0  9994
2 21821  13.9223 346.5106 0007573 147.1292 163.1623  1.00340039118854
RADUGA 29               
1 22557U 93013A   24154.90551344 -.00000139  00000+0  00000+0 0  9996
2 22557  14.2457 350.6626 0007163 144.0151 163.1507  1.00159576114224
RADUGA 30               
1 22836U 93062A   24154.90551339 -.00000164  00000+0  00000+0 0  9992
2 22836  14.3536 352.6816 0000941 311.4033 353.8415  1.00264905 38530
RADUGA-1 3              
1 22981U 94008A   24154.91343503 -.00000291  00000+0  00000+0 0  9998
2 22981  14.4684 353.8054 0003800 132.6534 187.9357  1.00312455111019
RADUGA 31               
1 23010U 94012A   24154.63670656  .00000098  00000+0  00000+0 0  9992
2 23010  14.4342 353.8158 0004965 125.8846  46.7025  1.00251627110883
RADUGA 32               
1 23448U 94087A   24154.90355988 -.00000160  00000+0  00000+0 0  9998
2 23448  14.5041 356.5598 0005993 220.2094  79.9820  1.00267346125477
RADUGA-1 4              
1 25642U 99010A   24154.63983937  .00000014  00000+0  00000+0 0  9995
2 25642  15.4277   7.7914 0001917 243.4800 292.1229  1.00195662 92484
RADUGA-1 5              
1 26477U 00049A   24154.64053556 -.00000011  00000+0  00000+0 0  9990
2 26477  13.5381  13.4476 0004600  83.9665  89.7554  1.00208595 86957
RADUGA-1 6              
1 26936U 01045A   24154.64140580 -.00000045  00000+0  00000+0 0  9998
2 26936  13.9130  19.9481 0017367 182.3877 350.5198  0.97743486 81320
RADUGA-1 7              
1 28194U 04010A   24154.77875997  .00000116  00000+0  00000+0 0  9990
2 28194  12.8094  26.5034 0002799 194.9967 351.1133  1.00351377 73950
RADUGA-1M 1             
1 32373U 07058A   24154.83847503 -.00000097  00000+0  00000+0 0  9997
2 32373   8.5026  58.5596 0003316  19.8798 210.0955  0.99393689 44998
RADUGA-1 8              
1 34264U 09010A   24154.87896771  .00000085  00000+0  00000+0 0  9999
2 34264  10.6451  48.3748 0012675  17.2378 170.4780  0.99824574 55747
RADUGA-1M 2             
1 36358U 10002A   24154.91248093 -.00000180  00000+0  00000+0 0  9998
2 36358   1.6863  88.6536 0001745 329.0869 247.5619  1.00273125 42620
RADUGA-1M 3             
1 39375U 13062A   24154.92549462  .00000158  00000+0  00000+0 0  9998
2 39375   4.0575  81.4634 0003142 207.9735 330.6000  1.00271105 38649
